COSMOS 2251 DEB         
1 37284U 93036BHY 26134.57890481  .00000863  00000+0  41700-3 0  9994
2 37284  74.0123 245.9714 0161482   2.5574  14.1433 14.13474385613343
COSMOS 2251 DEB         
1 37292U 93036BJG 26136.33648802  .00002117  00000+0  11072-2 0  9999
2 37292  74.1214 141.7522 0207451 106.3869 256.0184 14.04450497620189
COSMOS 2251 DEB         
1 37295U 93036BJK 26136.99900822  .00001590  00000+0  29018-3 0  9991
2 37295  74.0046 342.0610 0045086 122.8265 237.7257 14.66203258845797
COSMOS 2251 DEB         
1 37305U 93036BJV 26131.92171848  .00000811  00000+0  28126-3 0  9993
2 37305  73.8702  11.7988 0046946 300.9677  58.6866 14.36703229690238
COSMOS 2251 DEB         
1 37312U 93036BKC 26136.06480924  .00000724  00000+0  20769-3 0  9997
2 37312  74.0308 275.9696 0017983 343.4522  16.6047 14.46665173883955
COSMOS 2251 DEB         
1 37316U 93036BKG 26137.07604684  .00027783  00000+0  19506-2 0  9994
2 37316  74.0153  65.0872 0026111 113.8097 246.5834 15.04756022884723
COSMOS 2251 DEB         
1 37320U 93036BKL 26137.10172409  .00003323  00000+0  42681-3 0  9993
2 37320  74.0464 272.3249 0044716 320.2571  39.5331 14.80929365684451
COSMOS 2251 DEB         
1 37326U 93036BKS 26137.05336600  .00001235  00000+0  24469-3 0  9992
2 37326  74.0246  37.1393 0056632 128.6368 231.9888 14.62381128877533
COSMOS 2251 DEB         
1 37330U 93036BKW 26136.88044184  .00000753  00000+0  15958-3 0  9997
2 37330  74.0180 358.8029 0057770 168.0357 192.2198 14.60001964886329
COSMOS 2251 DEB         
1 37331U 93036BKX 26136.71369063  .00000739  00000+0  26082-3 0  9990
2 37331  74.0721 144.3288 0054901 121.7602 238.8917 14.35550552869835
COSMOS 2251 DEB         
1 37336U 93036BLC 26132.45141690  .00000075  00000+0  36780-4 0  9996
2 37336  74.0421  56.0610 0028795  99.3386 261.1023 14.32823002672789
COSMOS 2251 DEB         
1 37340U 93036BLG 26136.28198947  .00000265  00000+0  97854-4 0  9993
2 37340  74.0255 352.7923 0017636  54.1739 306.1050 14.37098341862871
COSMOS 2251 DEB         
1 37483U 93036BLL 26134.50568240  .00000296  00000+0  90546-4 0  9996
2 37483  73.9745 218.2502 0092089  29.4520 331.1780 14.43820999674843
COSMOS 2251 DEB         
1 37484U 93036BLM 26133.18813184  .00001173  00000+0  35842-3 0  9992
2 37484  73.8225 283.9160 0038529 289.5928 250.2495 14.42624861675625
COSMOS 2251 DEB         
1 37486U 93036BLP 26136.45355647  .00001778  00000+0  73294-3 0  9996
2 37486  73.6906 194.4285 0223126  39.1998 336.3872 14.15026865655577
COSMOS 2251 DEB         
1 37487U 93036BLQ 26135.64425101  .00013188  00000+0  13513-2 0  9995
2 37487  73.8971 243.5493 0029495  41.7597 318.5827 14.90183494835315
COSMOS 2251 DEB         
1 37491U 93036BLU 26135.96164983  .00000612  00000+0  46151-3 0  9996
2 37491  73.9075  15.4644 0311538 339.6514  19.2408 13.75777216578676
COSMOS 2251 DEB         
1 37496U 93036BLZ 26116.52245194  .00038279  00000+0  29343-2 0  9999
2 37496  73.9477  47.7014 0053155  27.4171 332.9801 15.00513667680343
COSMOS 2251 DEB         
1 37498U 93036BMB 26125.08677379  .00003317  00000+0  75971-3 0  9990
2 37498  74.0320 272.3333 0011087 308.3602  51.6564 14.55984948674406
COSMOS 2251 DEB         
1 37499U 93036BMC 26136.14095433  .00000198  00000+0  79075-4 0  9999
2 37499  74.0390  39.4960 0026934  80.6205 279.7991 14.34483699873635
COSMOS 2251 DEB         
1 37528U 93036BNH 26136.43654539  .00000655  00000+0  17222-3 0  9995
2 37528  74.0361 191.2816 0021430 298.6572  61.2434 14.51029609881740
COSMOS 2251 DEB         
1 37530U 93036BNK 26137.01723860  .00000277  00000+0  10665-3 0  9991
2 37530  74.0369  49.2213 0025836  76.8220 299.2702 14.34701687874594
COSMOS 2251 DEB         
1 37531U 93036BNL 26132.87948242  .00004449  00000+0  78547-3 0  9992
2 37531  74.0070 333.6699 0033244  26.1391 334.1447 14.67399927722662
COSMOS 2251 DEB         
1 37532U 93036BNM 26136.69168409  .00000359  00000+0  11572-3 0  9997
2 37532  74.0497 288.4821 0015493 351.8808  26.0208 14.42663555871501
COSMOS 2251 DEB         
1 37533U 93036BNN 26132.15452239  .00001026  00000+0  50284-3 0  9997
2 37533  74.0693 286.4272 0154386 308.0980  50.6320 14.13071968650454
COSMOS 2251 DEB         
1 37535U 93036BNQ 26137.00017152  .00001461  00000+0  31263-3 0  9998
2 37535  74.0203 137.4581 0029237 236.1851 154.7637 14.59456753875898
COSMOS 2251 DEB         
1 37537U 93036BNS 26136.83396064  .00000311  00000+0  11050-3 0  9997
2 37537  74.0120 339.2351 0050701  83.4768 277.2154 14.37688678872627
COSMOS 2251 DEB         
1 37546U 93036BPB 26136.46125985  .00013166  00000+0  14970-2 0  9993
2 37546  74.0180 151.2199 0003872 181.1143 179.0029 14.86279967681826
COSMOS 2251 DEB         
1 37959U 93036BPJ 26137.22336045  .00001201  00000+0  25609-3 0  9996
2 37959  74.0072 120.3998 0058993 224.2425 153.2979 14.59033969823943
COSMOS 2251 DEB         
1 37960U 93036BPK 26137.13423850  .00001296  00000+0  58447-3 0  9999
2 37960  74.0579 274.4091 0246313 255.8314 101.5347 14.08416121795935
COSMOS 2251 DEB         
1 37961U 93036BPL 26136.51291315  .00001744  00000+0  37144-3 0  9999
2 37961  74.0413 202.4459 0040376 245.0675 114.6293 14.59288611823220
COSMOS 2251 DEB         
1 37966U 93036BPR 26136.68688483  .00138657  00000+0  30741-2 0  9997
2 37966  73.9729 261.5631 0009517  42.0573 318.1365 15.43101843877051
COSMOS 2251 DEB         
1 37967U 93036BPS 26136.89059880  .00002058  00000+0  55742-3 0  9998
2 37967  74.0145 209.5479 0149048 310.8825  47.9494 14.41995900669712
COSMOS 2251 DEB         
1 37968U 93036BPT 26136.74440995  .00007087  00000+0  48248-3 0  9994
2 37968  73.9970 314.1373 0074922  31.5054 329.0588 15.04161190625471
COSMOS 2251 DEB         
1 37971U 93036BPW 26136.60788769  .00001329  00000+0  33646-3 0  9996
2 37971  73.9915 110.2491 0069302 210.8893 148.8184 14.50513116629224
COSMOS 2251 DEB         
1 37975U 93036BQA 26136.94194391  .00014258  00000+0  16302-2 0  9993
2 37975  74.0001  17.4847 0073768 328.7022  30.9774 14.84059944720424
COSMOS 2251 DEB         
1 37985U 93036BQL 26136.89515108  .00000059  00000+0  29458-4 0  9993
2 37985  74.0253 340.9469 0020505  68.2495 292.0837 14.35529675671435
COSMOS 2251 DEB         
1 37988U 93036BQP 26136.25547983  .00003424  00000+0  54986-3 0  9994
2 37988  74.0606  84.9055 0060691  84.5415 276.2675 14.70798699256660
COSMOS 2251 DEB         
1 37993U 93036BQU 26135.94441809  .00002757  00000+0  55652-3 0  9994
2 37993  74.0223 231.9421 0021490 284.9574  74.9213 14.61797840675694
COSMOS 2251 DEB         
1 37994U 93036BQV 26136.59709346  .00000481  00000+0  16091-3 0  9996
2 37994  74.0363 349.6462 0022603  35.0791 325.1847 14.39951970792937
COSMOS 2251 DEB         
1 37998U 93036BQZ 26134.17356835  .00000961  00000+0  27635-3 0  9992
2 37998  74.0362 310.7922 0019086 352.6129   7.4745 14.46083675664902
COSMOS 2251 DEB         
1 38001U 93036BRC 26136.40862163  .00002216  00000+0  28269-3 0  9991
2 38001  73.9996 186.9761 0064582 297.4849  78.5775 14.80716310769960
COSMOS 2251 DEB         
1 38006U 93036BRH 26137.17794926  .00005285  00000+0  13817-2 0  9993
2 38006  73.8441 104.0496 0068263  22.4214 337.9902 14.48235240652098
COSMOS 2251 DEB         
1 38054U 93036BRL 26137.10688233  .00000948  00000+0  82263-3 0  9995
2 38054  73.9558  11.3986 0346864 319.3547 194.9413 13.63364494692966
COSMOS 2251 DEB         
1 38055U 93036BRM 26133.81968402  .00002363  00000+0  31460-3 0  9995
2 38055  74.0082 267.6090 0064013 357.7893 152.7369 14.78885221629297
COSMOS 2251 DEB         
1 38056U 93036BRN 26136.62127645  .00002683  00000+0  16248-2 0  9995
2 38056  73.9217  10.6426 0272314 328.2405  30.2538 13.90136351664251
COSMOS 2251 DEB         
1 38060U 93036BRS 26136.88132199  .00001182  00000+0  22270-3 0  9994
2 38060  74.0418 357.3192 0058092  65.2652 295.4546 14.64658687742354
COSMOS 2251 DEB         
1 38062U 93036BRU 26136.81509020  .00023004  00000+0  16968-2 0  9993
2 38062  74.0042 335.1054 0015921  86.0462 288.4800 15.03116391653546
COSMOS 2251 DEB         
1 38064U 93036BRW 26137.13881654  .00001428  00000+0  31667-3 0  9997
2 38064  74.0205 188.7996 0047679 269.5238  90.0463 14.57390550741280
COSMOS 2251 DEB         
1 38067U 93036BRZ 26131.36106925  .00000843  00000+0  16989-3 0  9990
2 38067  74.0174 347.9954 0070173  99.3611  78.3462 14.61633466647419
COSMOS 2251 DEB         
1 38068U 93036BSA 26136.09416283  .00000362  00000+0  13250-3 0  9991
2 38068  74.0229  24.5644 0025276  79.2452 281.1545 14.36235944688624
COSMOS 2251 DEB         
1 38197U 93036BSM 26137.13572534  .00009931  00000+0  11841-2 0  9996
2 38197  73.9363  50.2699 0112165 246.9607 111.9710 14.79928409880506
COSMOS 2251 DEB         
1 38199U 93036BSP 26130.48162072  .00000258  00000+0  21732-3 0  9995
2 38199  73.9544 177.7513 0366149  75.0551 289.0792 13.65039950630510
COSMOS 2251 DEB         
1 38208U 93036BSY 26136.73199316  .00013596  00000+0  13933-2 0  9993
2 38208  74.0001 129.4027 0007393 217.8570 319.2701 14.90478972734639
COSMOS 2251 DEB         
1 38212U 93036BTC 26134.43054059  .00001138  00000+0  14961-3 0  9999
2 38212  74.0482 136.9111 0091603 164.0528 196.3567 14.78635496835668
COSMOS 2251 DEB         
1 38220U 93036BTL 26137.21665301  .00023855  00000+0  17166-2 0  9994
2 38220  74.0088 112.2803 0003341 216.8717 143.2243 15.04137329737005
COSMOS 2251 DEB         
1 38479U 93036BTP 26125.12027984  .00003209  00000+0  99031-3 0  9999
2 38479  74.0066 279.1912 0081817 356.0346 124.6225 14.39858833667507
COSMOS 2251 DEB         
1 38481U 93036BTR 26137.16274366  .00001540  00000+0  92850-3 0  9995
2 38481  73.9313  98.7935 0226829   7.9105 352.5503 13.95523739612283
COSMOS 2251 DEB         
1 38483U 93036BTT 26133.58975257  .00001100  00000+0  40991-3 0  9997
2 38483  74.2586  99.7620 0113620 160.4271 200.1296 14.29529958656479
COSMOS 2251 DEB         
1 38486U 93036BTW 26132.12621500  .00009905  00000+0  13502-2 0  9996
2 38486  73.9387 268.7356 0031106  21.9990 154.2011 14.78440804776538
